{"type": "FeatureCollection", "features": [{"type": "Feature", "id": 5, "geometry": {"type": "MultiLineString", "coordinates": [[[-80.2855465373727, 25.7083807898387], [-80.2854950980429, 25.7083529790483], [-80.285439965739, 25.7083503606572], [-80.2853833224688, 25.7083682069947], [-80.2851640751489, 25.7085393727334]], [[-80.2851640751489, 25.7085393727334], [-80.2852708974126, 25.7085205915724], [-80.2853473485349, 25.7085209663215], [-80.2854499747679, 25.7085525172782], [-80.2855103370634, 25.7085981913221], [-80.2855547282115, 25.7086767728141]], [[-80.2584605052815, 25.7303269099985], [-80.2617303854922, 25.7276150215565], [-80.2620196627766, 25.7273758305676], [-80.2645350210306, 25.7253462024332], [-80.2662689752432, 25.7239284653056], [-80.2672265362169, 25.7231186302098], [-80.268567475696, 25.7220415990634], [-80.2700434813697, 25.7208204428638], [-80.271316721114, 25.7198169893596], [-80.2720696278997, 25.7192176080693], [-80.274145006599, 25.7175322759165], [-80.2759593034356, 25.7160692471432], [-80.2782539402344, 25.7142059339008], [-80.279148019962, 25.713479852347], [-80.2804338558832, 25.7124291071459], [-80.282551712319, 25.7106878932294], [-80.2835007132464, 25.7099401545748], [-80.2851640751489, 25.7085393727334]]]}, "properties": {"CorrName": "Ponce De Leon Blvd.", "Classi": "Major Road", "KSIRank": 22, "FatalCrash": 0, "SerInjCra": 16, "EffecperMi": 7.17588676995, "Municipal": "Coral Gables"}}, {"type": "Feature", "id": 7, "geometry": {"type": "LineString", "coordinates": [[-80.2733107034653, 25.8229275055016], [-80.273309542842, 25.8233591944032], [-80.2733212326188, 25.8234160146512], [-80.273340149342, 25.8235475787017], [-80.2733497837735, 25.8236401886956], [-80.2733594289847, 25.8238167248301], [-80.2733800893379, 25.8241609339972], [-80.2733812796057, 25.8243882205637], [-80.2733995702032, 25.8247415361536], [-80.273410425445, 25.8249188598395], [-80.2734103841225, 25.8249894166369], [-80.2734231024703, 25.8252987694259], [-80.2734284600227, 25.8254237356624], [-80.2734303419932, 25.8254701135169], [-80.2734328815305, 25.8255152897796], [-80.2734369814415, 25.8255839080183], [-80.2734398551521, 25.8256294804492], [-80.2734396144036, 25.825665739467], [-80.2734451049066, 25.8257637637682], [-80.2734507157839, 25.8258545421812], [-80.2734567183266, 25.8259594741354], [-80.2734597986497, 25.8260104090076], [-80.2734609053741, 25.8260642248719], [-80.2734632221292, 25.8261725608101], [-80.2734712593561, 25.8265401572248], [-80.2734710707099, 25.8265995965815], [-80.2734837405486, 25.8268321739021], [-80.2734950126088, 25.8270107647448], [-80.2734995679656, 25.8271050563123], [-80.2734996649837, 25.8272716764675], [-80.2735092868387, 25.827445500052], [-80.273527750811, 25.827828347996], [-80.2735396813363, 25.8282412867187], [-80.2735400774934, 25.8283604685272], [-80.2735403505812, 25.8284122254969], [-80.273559405645, 25.8288973192432], [-80.2735659579567, 25.8291015548586], [-80.2735699743243, 25.8292498613194], [-80.2735698458652, 25.8293223795518], [-80.2735698270006, 25.8293402626913], [-80.2735721841799, 25.8294142233559], [-80.2735806229537, 25.8296516902153], [-80.273587726831, 25.8297793589382], [-80.2735897130061, 25.829833117298], [-80.2735899672293, 25.8298965129318], [-80.2735896734802, 25.8299900599377], [-80.2735954074267, 25.8300881817287], [-80.2736005197389, 25.8301697117035], [-80.2736949236922, 25.8329016194593], [-80.2738923015264, 25.8383337665154], [-80.2740422285507, 25.8416745777228], [-80.2740720427366, 25.842020529788], [-80.2741224400207, 25.8428855470084], [-80.2741859796574, 25.8438080620301], [-80.2742352414709, 25.8447036811291], [-80.2743154466527, 25.845760577613], [-80.2743627995463, 25.8466888579152], [-80.274410246763, 25.8476331316724], [-80.2744596891379, 25.8485955060996], [-80.2745221445081, 25.8495695650419], [-80.2745748253096, 25.8505284806294], [-80.2746293341827, 25.851437021536], [-80.274666645708, 25.8523609532957], [-80.2746798707056, 25.8532771979774], [-80.2746779662772, 25.8542122817857], [-80.2746717319692, 25.8551404658363], [-80.274665354829, 25.8560609119939], [-80.2746597466466, 25.8569799856301], [-80.2746542112279, 25.8578870218899], [-80.2746723742646, 25.8580874404404], [-80.2746642588843, 25.8583584012083], [-80.2746503242176, 25.8588666313412], [-80.2746627461214, 25.8597584534975], [-80.2746589938584, 25.8603731747429], [-80.2746674847345, 25.8606947729454], [-80.2746335248235, 25.8616190357243], [-80.2746527532622, 25.8625478624546], [-80.2746494465636, 25.8634629902819], [-80.274648530282, 25.8643913716812], [-80.2746428655058, 25.8653193852752], [-80.2746371450341, 25.8662563396565], [-80.2746328304258, 25.8671499700205], [-80.2746647313982, 25.8680886598678], [-80.2746839634301, 25.8689858458225], [-80.2747405159705, 25.8698718689094], [-80.2747377087352, 25.8703316620955], [-80.2747476512888, 25.8707578166477], [-80.2747666776065, 25.8716887046018], [-80.2747983863394, 25.8725971289447], [-80.2748165296132, 25.8734855392463], [-80.2748641528997, 25.8744026410111], [-80.2748802974219, 25.8753073766214], [-80.2749011500146, 25.8762193577235], [-80.2749222568305, 25.8771210218355], [-80.2749474060653, 25.8780139379816], [-80.2749626253228, 25.8789148852334], [-80.2749896448499, 25.8798131406902], [-80.2750199791604, 25.8807289510947], [-80.2750279409288, 25.8814685163294], [-80.2750298040347, 25.8816415643839]]}, "properties": {"CorrName": "E 4th AVe.", "Classi": "Major Road", "KSIRank": 12, "FatalCrash": 5, "SerInjCra": 23, "EffecperMi": 8.90120243229, "Municipal": "Hialeah"}}, {"type": "Feature", "id": 8, "geometry": {"type": "LineString", "coordinates": [[-80.1948344955906, 25.7955544197819], [-80.1948751713067, 25.7968601901763], [-80.194912400187, 25.7979668585145], [-80.19491839195, 25.7981204481115], [-80.1949533301263, 25.7988575875737], [-80.1949729502304, 25.7992586129509], [-80.1949637335156, 25.7999002570406], [-80.1949954126041, 25.8007248906221], [-80.1950033770674, 25.8008647988256], [-80.1950366731234, 25.8016159095178], [-80.195040013958, 25.8022743419146], [-80.1950536485873, 25.8025617535382], [-80.1950936433804, 25.80305256104], [-80.195100679884, 25.8032482846745], [-80.1951438529166, 25.8039717641161], [-80.1951593874828, 25.8049059079422], [-80.1951769594281, 25.8057915715289], [-80.1951969702994, 25.8067381197771], [-80.1952435066243, 25.8074700435836], [-80.1952548846857, 25.8082041803628], [-80.1952804246876, 25.8089789777149], [-80.1952939928416, 25.8096979937036], [-80.1953319215095, 25.8104671842831], [-80.1953626465872, 25.8112537931669], [-80.1953678882569, 25.8114335332042], [-80.1953747630638, 25.8115853351227], [-80.1953940382148, 25.8117893418185], [-80.1953952105163, 25.8119354808433], [-80.1954167844561, 25.8126624751525], [-80.1954526775416, 25.8133453378198], [-80.1954798425958, 25.8141328664617], [-80.1955048687613, 25.8148154917989], [-80.1955028286873, 25.8150892315957], [-80.1955000852324, 25.8154953726386], [-80.195519997289, 25.8160068743756], [-80.195533918481, 25.8162241314272], [-80.1955756811585, 25.8169319529023], [-80.1956106220298, 25.8177497901227], [-80.1956684376015, 25.8185566006945], [-80.1956866311809, 25.8192381307058], [-80.1957269349945, 25.819993576444], [-80.1957332744054, 25.8206580425816], [-80.1957348383724, 25.8208485764672], [-80.1957545608844, 25.8213600761074], [-80.1957530463248, 25.8215842969014], [-80.1957811276606, 25.822011758384], [-80.195814253935, 25.82245145674], [-80.1958205017178, 25.8227080467598], [-80.1958684349231, 25.823431036203], [-80.1959019115405, 25.824353583214], [-80.195922407502, 25.8246663095337], [-80.1959483840851, 25.8252849715191], [-80.196116277415, 25.8261743866096], [-80.1961534586846, 25.8270551698378], [-80.1961982558713, 25.8278771854168], [-80.196224148911, 25.8284320533992], [-80.1962470415777, 25.8286997410753], [-80.1963343281789, 25.829616737447], [-80.1964249744793, 25.8302897510732], [-80.1964498820672, 25.8308501156537], [-80.1964511675563, 25.8312541966073], [-80.1964515403572, 25.8313713685464], [-80.1964442424438, 25.8314832136083], [-80.1964055807506, 25.8317404753654], [-80.1963307977998, 25.8320198819821], [-80.1962835194664, 25.8322052091154], [-80.1962618691698, 25.8323209392779], [-80.1962298056023, 25.8325787110247], [-80.1962246456794, 25.8326383599971]]}, "properties": {"CorrName": "N Miami Ave.", "Classi": "Major Road", "KSIRank": 21, "FatalCrash": 3, "SerInjCra": 11, "EffecperMi": 7.52729707518, "Municipal": "Miami"}}, {"type": "Feature", "id": 10, "geometry": {"type": "LineString", "coordinates": [[-80.2158226907697, 25.8126194183991], [-80.2158340212204, 25.8128485094538], [-80.2158634149948, 25.8135777576043], [-80.2158729506115, 25.8143053806855], [-80.2159013023402, 25.8150368275288], [-80.2159304544678, 25.8156874884888], [-80.2159704447693, 25.8165388822611], [-80.2159969890876, 25.817297173883], [-80.2160199266701, 25.8180549301775], [-80.216055732619, 25.8187917774251], [-80.2160509625648, 25.8195161978087], [-80.2160840268555, 25.8202654096481], [-80.2161228987545, 25.8209983196845], [-80.216138186284, 25.8216887490842], [-80.2161627219693, 25.8224002923066], [-80.216178166704, 25.8231652473634], [-80.2162015839868, 25.8235907891608], [-80.2162005841619, 25.8239446658776], [-80.2162512733985, 25.8246719640854], [-80.2162725688606, 25.8254775137894], [-80.2163039272505, 25.8261687685162], [-80.2163581127301, 25.8269134530321], [-80.2163695339107, 25.8276317698764], [-80.2164527574319, 25.8283238197922], [-80.216460296992, 25.829083383023], [-80.2164464880895, 25.8292760687007], [-80.2164804084746, 25.8298091400667], [-80.2165248211823, 25.830162917339], [-80.2165097690114, 25.8305442307384], [-80.2165555076324, 25.831216132985], [-80.2165949167239, 25.8319834340924]]}, "properties": {"CorrName": "NW 12th Ave.", "Classi": "Major Road", "KSIRank": 6, "FatalCrash": 3, "SerInjCra": 7, "EffecperMi": 11.2409958451, "Municipal": "Miami"}}, {"type": "Feature", "id": 11, "geometry": {"type": "LineString", "coordinates": [[-80.1946320826992, 25.7882603480615], [-80.1951231512409, 25.7882481069219], [-80.1955895789943, 25.7882285052423], [-80.196547023187, 25.7882042195059], [-80.1972426947127, 25.7881858788174], [-80.1975209424821, 25.7881874140161], [-80.1980030638035, 25.788156782836], [-80.1982650412865, 25.7881416500433], [-80.198694828556, 25.7881474575935], [-80.1990627865812, 25.7881338446308], [-80.1993424977062, 25.788121446561], [-80.199943267612, 25.7880929410253], [-80.2019812692089, 25.7880405120782], [-80.2032070590416, 25.7879911745405], [-80.2034378389331, 25.7879924387763], [-80.2037853000984, 25.7879718187096], [-80.2040438442204, 25.7879704711619], [-80.2047930023364, 25.7879474180636], [-80.2047933284248, 25.7879474075485], [-80.2051608471739, 25.7879189812385], [-80.2061002945182, 25.7878873130399], [-80.2069282232066, 25.7878593299669], [-80.2078430665936, 25.7878142760407], [-80.2087325810829, 25.7877792227623], [-80.2091678983814, 25.7877815910853], [-80.2097584831885, 25.7877499770432], [-80.210111212973, 25.7877432287767], [-80.2106635798547, 25.7877389822946], [-80.2110016671001, 25.7877344591842], [-80.2126108444214, 25.7877000173759], [-80.2150054726945, 25.7875982651134]]}, "properties": {"CorrName": "NW 14th St.", "Classi": "Collector Road", "KSIRank": 28, "FatalCrash": 0, "SerInjCra": 8, "EffecperMi": 6.68897463662, "Municipal": "Miami"}}, {"type": "Feature", "id": 12, "geometry": {"type": "LineString", "coordinates": [[-80.2225206642754, 25.7656343249927], [-80.2225406032814, 25.7658708177983], [-80.2225386575305, 25.7659711090315], [-80.2225509671449, 25.766062914563], [-80.2226497467918, 25.7683272252041], [-80.2226830096101, 25.7691729014925], [-80.222656537157, 25.7697897846222], [-80.2227983407162, 25.7718092679927], [-80.2228059081242, 25.7722208697661], [-80.222838186389, 25.7727962748465], [-80.2228773664101, 25.773108466602], [-80.2229235901213, 25.774865853351], [-80.2229323424071, 25.776030764714], [-80.2228540245857, 25.7766668679478], [-80.222874314833, 25.7771262523263], [-80.2228627202777, 25.7780919994218], [-80.2227148935145, 25.7786610033933], [-80.2225989506557, 25.779065568933], [-80.222535182847, 25.7794910126802], [-80.2225307442712, 25.7799933455419], [-80.2225293860185, 25.7806368346473], [-80.222603983018, 25.7819971406854], [-80.2227625042246, 25.7828108720392], [-80.2229252663776, 25.783626497065], [-80.2229301990269, 25.7858802225935], [-80.2229380835401, 25.7865119318491], [-80.223036635015, 25.7876681250662], [-80.2232604035556, 25.7938275486949], [-80.2232968562916, 25.7957007923523], [-80.2233360911099, 25.7965661326196], [-80.2233789344608, 25.7973322080655], [-80.2235038362178, 25.8003206488834], [-80.2236773161706, 25.8044139459572], [-80.2238097898272, 25.8077289207647], [-80.2238513719434, 25.8090767133718], [-80.2238633599609, 25.8091860975704], [-80.2238847290848, 25.8095400650438], [-80.2239921963389, 25.8119004363154], [-80.2240385538991, 25.812857504428], [-80.2240607719311, 25.8133082065078], [-80.224108487744, 25.8140386478574], [-80.2241420353283, 25.8147796087245], [-80.224172113619, 25.8154661539748], [-80.2241774576966, 25.8155890442361], [-80.2242032986341, 25.8161684713897], [-80.2242170410613, 25.8163359002294], [-80.2242516010469, 25.8170795815912], [-80.2242815059627, 25.8179167525631], [-80.224316446834, 25.8185401650153], [-80.2243446727985, 25.8192821287342], [-80.2243677047041, 25.8198069622534], [-80.2244067832156, 25.8208006515141], [-80.2244463135797, 25.8215278881722], [-80.2244625874593, 25.8222584591483], [-80.2244914072103, 25.8229683461415], [-80.2245111710448, 25.8236668194124], [-80.2245601453975, 25.8244401676746], [-80.2245936274048, 25.8252592629676], [-80.2246266584578, 25.825954797234], [-80.2246605231473, 25.8266717832992], [-80.2246859517581, 25.8273877405472], [-80.2247179757997, 25.8280944902271], [-80.2247509601403, 25.8288346807073], [-80.2247612153076, 25.8290175749834], [-80.224778465656, 25.8295239930546], [-80.2248100369466, 25.8299327318315], [-80.2248211652764, 25.8302595560812], [-80.2248585495652, 25.8309987441556], [-80.2248795045658, 25.8316504663583], [-80.2248915348041, 25.8318320342997], [-80.2249218745045, 25.8323615001533], [-80.2249505280672, 25.8329835064901], [-80.2249758102525, 25.833472005675], [-80.225026587524, 25.834589421827], [-80.2251309448105, 25.8366052899739], [-80.2251597501884, 25.8373275097228], [-80.2252050153973, 25.8380830583211], [-80.2252543957884, 25.8388200832886], [-80.2252502806061, 25.8392682214147], [-80.2253790684751, 25.8466807677433], [-80.2258826918712, 25.8611897376761], [-80.2259340027419, 25.8624890401415], [-80.2259655093539, 25.862902613676], [-80.2261118592867, 25.8674076666695], [-80.2261613465774, 25.8686162991248], [-80.2262037641268, 25.8700475568596], [-80.226217902711, 25.8707790826678], [-80.2262673900017, 25.872261203295], [-80.226338085618, 25.8747928513446], [-80.2263734334261, 25.8759441606427], [-80.2264299796783, 25.8772189590388], [-80.2264647274118, 25.878005773171], [-80.2265052674822, 25.8787404761619], [-80.2265342237771, 25.8794569361304], [-80.2265921390618, 25.8807621874566], [-80.2266182000865, 25.8812832405427], [-80.2266471563813, 25.8816792399972], [-80.2266703221359, 25.8819006866252], [-80.226690591722, 25.8821898688062], [-80.2267260652942, 25.8826558808698], [-80.226762261112, 25.8831158667561]]}, "properties": {"CorrName": "NW 17th Ave.", "Classi": "Major Road", "KSIRank": 4, "FatalCrash": 17, "SerInjCra": 53, "EffecperMi": 11.7631467692, "Municipal": "Miami"}}, {"type": "Feature", "id": 13, "geometry": {"type": "LineString", "coordinates": [[-80.1948344955906, 25.7955544197819], [-80.2157965093707, 25.7949822527454], [-80.2171204742842, 25.7949351366474], [-80.2181094744963, 25.7949151793905], [-80.2191884697301, 25.7948723135368], [-80.2202637064128, 25.7948475875535], [-80.2212559845774, 25.7948247622578], [-80.2212560797987, 25.7948247582138], [-80.221810157971, 25.7948029018628], [-80.2232596902933, 25.7947457160597], [-80.2253445381339, 25.7946902893828], [-80.2273812174107, 25.7946388614204], [-80.2282289126286, 25.794609685333], [-80.2287279689897, 25.7946000079582], [-80.2290005286267, 25.7945943082954], [-80.2294192935677, 25.7945784079576], [-80.2305805619052, 25.7945493054568], [-80.2314807358036, 25.7945208362451], [-80.231660471624, 25.7945204593408], [-80.231890275945, 25.7945098744765], [-80.232018536503, 25.7945094636023], [-80.2322055989828, 25.7945005036316], [-80.232412071361, 25.7944908707323], [-80.232531670363, 25.7944902843467], [-80.2330472359624, 25.79447839002], [-80.2335962611112, 25.7944596183986], [-80.2346117068269, 25.794431116813], [-80.2356626333014, 25.7943999663733], [-80.2362909275875, 25.7943798141035], [-80.2371080585262, 25.794357144009], [-80.2377319088466, 25.7943473469098], [-80.2380117160913, 25.7943351492655], [-80.2398220738154, 25.7942957643161]]}, "properties": {"CorrName": "NW 20th St.", "Classi": "Major Road", "KSIRank": 2, "FatalCrash": 5, "SerInjCra": 22, "EffecperMi": 12.6563238128, "Municipal": "Miami"}}, {"type": "Feature", "id": 14, "geometry": {"type": "LineString", "coordinates": [[-80.2311982794272, 25.7797132653508], [-80.2324656612576, 25.818969469058], [-80.2327061690052, 25.8241738983632], [-80.2330276688589, 25.8324005765189], [-80.2330886788397, 25.8332823402674], [-80.2330985890539, 25.8338378046777], [-80.2331395594174, 25.8347039877959], [-80.2331853142081, 25.8356236704688], [-80.2332391134121, 25.8369466313315], [-80.2332389481221, 25.83723757854], [-80.2332644620728, 25.8378190916186], [-80.2333092619544, 25.8389169154705], [-80.2333294336241, 25.8391775341401], [-80.2333271887342, 25.8393193842165], [-80.2333441704863, 25.8396919282381], [-80.2333532497589, 25.8399932409046], [-80.2333390590723, 25.8402196295528], [-80.2333754408413, 25.8407071432277], [-80.2333936443023, 25.8411133669763], [-80.2333861972686, 25.841564444157], [-80.2334264768276, 25.8420910028182], [-80.2334298733577, 25.8422411169351], [-80.2334574740948, 25.8427502248183], [-80.2334633248222, 25.8430513477885], [-80.233497079019, 25.8439761260411], [-80.233527292057, 25.8447983038135], [-80.2335669688464, 25.8456337936082], [-80.2335963365697, 25.8462663993436], [-80.2335920668772, 25.8469289167602], [-80.2336135114596, 25.8475231330056], [-80.2336474246582, 25.8481287630757], [-80.2336814537395, 25.8487459159341], [-80.2336942547323, 25.8494133395823], [-80.2337212176656, 25.8499773194311], [-80.2337580710501, 25.8506143749463], [-80.2337527736849, 25.8508767835613], [-80.2337480180038, 25.8511963978633], [-80.2337887098895, 25.8518303133903], [-80.2338121379521, 25.8524412189263], [-80.2338356908805, 25.8529950161773], [-80.2338161354551, 25.8530460065097], [-80.2338174101645, 25.853084603125], [-80.2338664330262, 25.8536537966445], [-80.2338511993956, 25.8536743446463], [-80.2338425944335, 25.8536995150949], [-80.2338829620274, 25.8545739989223], [-80.233923878492, 25.8555086149255], [-80.233946256424, 25.8564008334631], [-80.2339549934385, 25.8573156766368], [-80.2339958191732, 25.8579793075253], [-80.2340020732442, 25.8583263282575], [-80.2340173841299, 25.8587225922027], [-80.2340393874645, 25.8594664097685], [-80.2340624849471, 25.8600405164932], [-80.2340718696468, 25.8602266008106], [-80.2341060370686, 25.8607974979081], [-80.2340923781848, 25.8609460127982], [-80.2341354703689, 25.8617101810998], [-80.234133775248, 25.8618556740484], [-80.23414064197, 25.8620682692631], [-80.2341650420098, 25.8624365495546], [-80.2341714496927, 25.8627616212443], [-80.234184340517, 25.8630703797551], [-80.2341535202179, 25.8631786640222], [-80.2341707759562, 25.8635052169678], [-80.2341947987036, 25.8635546548037], [-80.2342041816067, 25.8637840797184], [-80.2341914174448, 25.8638919397649], [-80.2342129419774, 25.8645795613123], [-80.2342140316338, 25.864629570187], [-80.2342341179636, 25.8650812277677], [-80.2342324884196, 25.8653339916865], [-80.2342554260021, 25.8660217576158], [-80.2342849967446, 25.8665056212626], [-80.2343032514095, 25.8667882719668], [-80.23427411096, 25.8668694905026], [-80.2342658976634, 25.8674645926661], [-80.2343432659655, 25.8681210963314], [-80.2343342738295, 25.8682945567754], [-80.2343190581652, 25.8683536308144], [-80.2343550788115, 25.8692268204593], [-80.2343649593813, 25.8697582099656], [-80.2343458135877, 25.870163061661], [-80.2343376479017, 25.8703980784229], [-80.2342533437073, 25.8710037731724], [-80.2342007257878, 25.8715000979033], [-80.2341997924382, 25.8715190892858], [-80.2341786973004, 25.8717647863845], [-80.2341591409767, 25.8721192351225], [-80.2341647275994, 25.872370616384], [-80.2342078584112, 25.8733286882712], [-80.2342427813161, 25.8738903611958], [-80.2342515120424, 25.8740160504132], [-80.2342820700334, 25.8742124390929], [-80.2344709408219, 25.8752597016593], [-80.2344958421216, 25.8754013791272], [-80.2345053633653, 25.8754560721064], [-80.2345154343779, 25.8755379894813], [-80.234520224195, 25.8756553260743], [-80.2345966672325, 25.8774380256781], [-80.2347565314204, 25.8828269260711], [-80.2353000714561, 25.8935081132715], [-80.2355132255034, 25.8974965309563], [-80.2360327589614, 25.9099720954766], [-80.2366047324725, 25.9267486451187], [-80.2373355874146, 25.9412654349504]]}, "properties": {"CorrName": "NW 22nd Ave", "Classi": "Major Road", "KSIRank": 14, "FatalCrash": 22, "SerInjCra": 47, "EffecperMi": 8.62347053377, "Municipal": "Miami Gardens / Opa-Locka / Miami / Unincorporated Miami-Dade County"}}, {"type": "Feature", "id": 15, "geometry": {"type": "LineString", "coordinates": [[-80.1951438529166, 25.8039717641161], [-80.1972022965761, 25.8038844424838], [-80.1992031627174, 25.8038562715145], [-80.2012219637234, 25.803787932644], [-80.2032311329929, 25.8037392874753], [-80.2053091230947, 25.8036815026599], [-80.2056227815542, 25.8036846066231], [-80.2058766939626, 25.8036889786983], [-80.2073005623155, 25.8036145078235], [-80.2078219031838, 25.8036015306934], [-80.208311434708, 25.8035156394602], [-80.2093502527908, 25.803499109497], [-80.2104502668057, 25.8034498899998], [-80.2113909358588, 25.8035101925549], [-80.213344427547, 25.8034347963615], [-80.2154456804213, 25.8033923282574]]}, "properties": {"CorrName": "NW 29th St.", "Classi": "Major Road", "KSIRank": 32, "FatalCrash": 1, "SerInjCra": 6, "EffecperMi": 6.31643667349, "Municipal": "Miami"}}, {"type": "Feature", "id": 16, "geometry": {"type": "LineString", "coordinates": [[-80.1989106425148, 25.7954328295132], [-80.1989149301737, 25.7959819056342], [-80.1989339735594, 25.7967677080631], [-80.1989797076888, 25.797733278234], [-80.1990012438994, 25.7979965166196], [-80.1989938822057, 25.798478781277], [-80.1990292803195, 25.7989210717698], [-80.1990399505084, 25.7991341601797], [-80.1990480290578, 25.7994948155045], [-80.1990614004808, 25.7998228066978], [-80.1990661983827, 25.8001263333337], [-80.1990972351758, 25.8007371167245], [-80.1991227814658, 25.8014580922085], [-80.1991575777083, 25.8021596863381], [-80.199154941153, 25.8025518996958], [-80.1991654909677, 25.802932321797], [-80.1992031627174, 25.8038562715145], [-80.1992187511825, 25.8047871473344], [-80.1992461012897, 25.8056882561512], [-80.1992929250756, 25.806611135464], [-80.1992881532248, 25.8073211081572], [-80.1993353956256, 25.80806473047], [-80.1993549546442, 25.8084604429901], [-80.1993740249794, 25.8088463041044], [-80.1993695926918, 25.8095906705572], [-80.199414807595, 25.8103249931361], [-80.1994376158201, 25.8110583326428], [-80.1994560034356, 25.8115717272778], [-80.1994570553628, 25.8116571606131], [-80.1994602560602, 25.8118166051694], [-80.1994887389429, 25.812524870265], [-80.1995017474465, 25.8132746632953], [-80.1995485568593, 25.8140267069722], [-80.19958236765, 25.8147905427407], [-80.1995941023426, 25.8149666885431], [-80.1996137529894, 25.8155196301405], [-80.1996212557187, 25.815901411206], [-80.1996391339894, 25.8162376797055], [-80.1996748510051, 25.8169362686915], [-80.1997090390882, 25.8177651900324], [-80.1997044576803, 25.8184467941417], [-80.1997507236124, 25.8186864081122], [-80.1997621465895, 25.8191352726156], [-80.1997768169764, 25.8196378037966], [-80.1997848083892, 25.8199470217794], [-80.1998256035812, 25.8205482266566], [-80.1998242722779, 25.8207463108834], [-80.1998599084452, 25.8214652756562], [-80.1998938944074, 25.8223730378609], [-80.1999544246878, 25.8233173997373], [-80.19996551439, 25.8242681962332], [-80.2000125025676, 25.8249377010265], [-80.2000281709828, 25.8251790379225], [-80.2000740102151, 25.8260196318138], [-80.2001098763511, 25.8269822895871], [-80.2001519040317, 25.8277451038346], [-80.2001370503885, 25.8279479280414], [-80.2001895272724, 25.8286207296067], [-80.2001879642038, 25.8288533765365], [-80.2002121351732, 25.8295260201359], [-80.2002433839687, 25.8303042849978], [-80.2002804430674, 25.830698952128], [-80.2003472301138, 25.8325378445927], [-80.2003609339135, 25.8328049844914], [-80.2003719966662, 25.8330747564074], [-80.2003901641945, 25.83347024548], [-80.2003995938101, 25.8338762021918], [-80.20042788086, 25.834367024657], [-80.2004435968859, 25.8348026813539], [-80.2004687407307, 25.8352553099056], [-80.2005111726532, 25.8362072386588], [-80.2005410317549, 25.8369583095625], [-80.2005488893187, 25.8371436014725], [-80.2005740340618, 25.8375198415939], [-80.200605464317, 25.8379752887316], [-80.2006086075221, 25.838033279963], [-80.2006250107593, 25.8384304818618], [-80.2006510385463, 25.8391138985016], [-80.2006810216155, 25.8398661491488], [-80.2007078785476, 25.8404462756774], [-80.2007202097215, 25.8409502080524], [-80.2007338030284, 25.8411935359451], [-80.2007394992456, 25.8412995271633], [-80.2007479865284, 25.8413759583681], [-80.2007505063028, 25.8414005380044], [-80.2007505063028, 25.8414526296441], [-80.2007504982179, 25.841627818145], [-80.2007539854779, 25.8417333101388], [-80.2007566858136, 25.8418030177052], [-80.2007602287691, 25.8419594415934], [-80.2007722419394, 25.8423471977646], [-80.2007800878251, 25.842530595052], [-80.2008001705615, 25.84290991451], [-80.2008001705615, 25.8429359110876], [-80.2007999055586, 25.8430042896186], [-80.2007892524376, 25.8435394658504], [-80.2008091644942, 25.8435894310743], [-80.2008290765508, 25.8436676410547], [-80.2008375611386, 25.8439853983807], [-80.2008989484119, 25.8454461559099], [-80.2009572679384, 25.8473039818092]]}, "properties": {"CorrName": "NW 2nd Ave.", "Classi": "Collector Road", "KSIRank": 16, "FatalCrash": 4, "SerInjCra": 18, "EffecperMi": 8.1837100551, "Municipal": "Miami"}}, {"type": "Feature", "id": 17, "geometry": {"type": "MultiLineString", "coordinates": [[[-80.2318451625515, 25.8037018846493], [-80.232837540429, 25.8036699812782], [-80.2337354326066, 25.8036497828684], [-80.2338731290683, 25.8037129280598], [-80.2359588967838, 25.8036864165943], [-80.2379621632236, 25.8036094038309], [-80.2400787952556, 25.8035388027555]], [[-80.2277231359708, 25.8038829568218], [-80.2298037482548, 25.8038315724764], [-80.2308094544362, 25.803824516185], [-80.2310097859311, 25.8038208873506], [-80.231848788152, 25.8038056870054]], [[-80.2196072310779, 25.804571465758], [-80.2207220367522, 25.8045561215535], [-80.221667668099, 25.8044989396473], [-80.2234433023441, 25.8044626935588], [-80.2236784139119, 25.8044139103727], [-80.2238996186607, 25.8043714151222], [-80.2257365081267, 25.8043213678368]], [[-80.2155178214269, 25.8048992156464], [-80.2174824863606, 25.804832422874], [-80.2195911943535, 25.8047577788392]]]}, "properties": {"CorrName": "NW 30th St.", "Classi": "Minor Road", "KSIRank": 17, "FatalCrash": 4, "SerInjCra": 1, "EffecperMi": 7.9879792262, "Municipal": "Miami"}}, {"type": "Feature", "id": 20, "geometry": {"type": "LineString", "coordinates": [[-80.2554898646719, 25.772577966637], [-80.2555121357044, 25.7732787083226], [-80.255532976619, 25.773947231955], [-80.255542048705, 25.7745930617695], [-80.2555735831648, 25.7753841661443], [-80.2555982158682, 25.7761836053395], [-80.2556445985812, 25.7768768277799], [-80.255662476852, 25.7775724842642], [-80.2556952554784, 25.7782546325857], [-80.2557168051638, 25.7789405068865], [-80.2557634403034, 25.780811117351], [-80.2557937198167, 25.7826546474738], [-80.2558093972151, 25.7834295163855], [-80.2558278450177, 25.7840342585374], [-80.2558479690767, 25.7842487908571], [-80.25586646988, 25.7847841865181], [-80.2558682952567, 25.785191733704], [-80.2558857405395, 25.7859342451529], [-80.2558889133891, 25.7860748130508], [-80.2558961906412, 25.7864131115037], [-80.2559332587231, 25.787199485315], [-80.2559453518434, 25.7879095572973], [-80.255970056412, 25.7886379179272], [-80.2560003718579, 25.7893804102258], [-80.2560244296396, 25.790121320642], [-80.2560508886179, 25.7908730769156], [-80.2560748332118, 25.7916320439707], [-80.2561220549514, 25.7923441850687], [-80.2561805164118, 25.7931117533742], [-80.2562072547662, 25.7936104907939], [-80.2554898646719, 25.772577966637], [-80.2554618111839, 25.771855092467], [-80.25542135825, 25.7713754457516], [-80.2554348428607, 25.7707197233312], [-80.2553809062144, 25.7693171935677], [-80.2553269695681, 25.7686978899297], [-80.2552865166343, 25.7683335919247], [-80.2552730329218, 25.7676535667992], [-80.2549392998106, 25.7603510126236], [-80.2547707480156, 25.7552845369309], [-80.2545699341254, 25.7498513567465], [-80.2543394920005, 25.7437875094746]]}, "properties": {"CorrName": "NW 37th Ave.", "Classi": "Major Road", "KSIRank": 37, "FatalCrash": 3, "SerInjCra": 16, "EffecperMi": 4.81496232632, "Municipal": "Miami / Coral Gables"}}, {"type": "Feature", "id": 21, "geometry": {"type": "LineString", "coordinates": [[-80.1995962008071, 25.7797534405933], [-80.1996536822055, 25.7806973105868], [-80.1996891333198, 25.7816690184805], [-80.1996649506724, 25.7825556589011], [-80.1996857637392, 25.7826524108972], [-80.1997379971797, 25.7836141009506], [-80.1997743097784, 25.7845710593745], [-80.1997986954452, 25.7847863081944], [-80.1997975195504, 25.7849615247113], [-80.1998472960986, 25.7858652512836], [-80.1998698716601, 25.7867652372699], [-80.1998711760139, 25.7868172631596], [-80.199943267612, 25.7880929410253], [-80.199946304816, 25.7883533763136], [-80.1999469848407, 25.7884776487054], [-80.1999448109177, 25.7886756158827], [-80.1999459104556, 25.7888029567004], [-80.1999770873858, 25.7895065976872], [-80.1999967937282, 25.790249552054], [-80.2000070192511, 25.7909618454276], [-80.2000302335147, 25.7916632056524], [-80.2002280326588, 25.792898758476], [-80.2002534972021, 25.7930572754851], [-80.2003162184736, 25.793484539021], [-80.2003134480693, 25.793597123529], [-80.2003289107703, 25.794113487737], [-80.2003323594026, 25.79470348344], [-80.2003273423117, 25.7952530231477], [-80.2003668385398, 25.7953966518267]]}, "properties": {"CorrName": "NW 3rd Ave.", "Classi": "Minor Road", "KSIRank": 27, "FatalCrash": 0, "SerInjCra": 7, "EffecperMi": 6.71794414382, "Municipal": "Miami"}}, {"type": "Feature", "id": 23, "geometry": {"type": "LineString", "coordinates": [[-80.2148664296582, 25.7802061622023], [-80.2155951627796, 25.7802161262953], [-80.2163724579269, 25.7801971000377], [-80.2174576730958, 25.7801412103379], [-80.2181969578285, 25.7801106539258], [-80.2193970244031, 25.7800780291332], [-80.2198379705452, 25.7800657378058], [-80.2198682410753, 25.7800648941167], [-80.2202939176541, 25.7800673628981], [-80.221561061431, 25.7800270478211], [-80.2225144128993, 25.7799933172302], [-80.2229879633946, 25.7799766351485], [-80.2234036516058, 25.7799641415839], [-80.2241596459011, 25.7799322431495], [-80.2245160210491, 25.7799201176329], [-80.2248447747987, 25.7799107003362], [-80.2255602595663, 25.7798736669434], [-80.225856341589, 25.7798460095872], [-80.2264923892343, 25.7798179251213], [-80.2266572363771, 25.7798191449542], [-80.2272416865892, 25.7797814967627], [-80.2280922959418, 25.7797614228993], [-80.2288986309274, 25.779744891242], [-80.229615888071, 25.7797289144935], [-80.2303824564356, 25.7797234551707], [-80.2311982794272, 25.7797132653508], [-80.2318949705407, 25.7796854833853], [-80.2325704129045, 25.7796726314434], [-80.2327623577279, 25.77966270047], [-80.2333515088239, 25.779643857746], [-80.2336238133393, 25.7796339591265], [-80.2344236597936, 25.7796152442056], [-80.2346211050014, 25.7796058382095], [-80.2354133229623, 25.7795879556518], [-80.2357551993016, 25.7795715080969], [-80.2364092887111, 25.7795579434934], [-80.2370520512631, 25.7795374578572], [-80.2373873609177, 25.7795254075288], [-80.2379538780617, 25.7795158494506], [-80.2383757619534, 25.7794961120488], [-80.2393414697485, 25.7794698758597], [-80.2401352983886, 25.7794484033377], [-80.2408725322676, 25.7794266298972], [-80.241398884837, 25.7794131494038], [-80.2418931765338, 25.7793977315679], [-80.2433863642839, 25.7793370656806], [-80.2438587981733, 25.7793223257024], [-80.2446621202094, 25.7793008766121], [-80.2454846536162, 25.7792753959032], [-80.2464285781639, 25.779244693664], [-80.2475085597479, 25.7792028219608], [-80.2480550309864, 25.7791932670922], [-80.2490664639277, 25.7791489662071], [-80.2500913015297, 25.7791171104258], [-80.2509994425864, 25.7790985733841], [-80.2511707593959, 25.7790979068401], [-80.2520453717329, 25.779065263164], [-80.2526420614907, 25.7790430520311], [-80.2530821919625, 25.7790306950745], [-80.2540223337046, 25.7789970014103], [-80.2547668663952, 25.7789591596275], [-80.2547672508742, 25.7789591418314], [-80.2557168051638, 25.7789405068865]]}, "properties": {"CorrName": "NW 7th St.", "Classi": "Major Road", "KSIRank": 10, "FatalCrash": 5, "SerInjCra": 12, "EffecperMi": 9.51789743908, "Municipal": "Miami"}}, {"type": "Feature", "id": 39, "geometry": {"type": "LineString", "coordinates": [[-80.285923715706, 25.718942256666], [-80.2921771848428, 25.7187261196321], [-80.2940964067012, 25.7186492718755], [-80.3037245103906, 25.7183370729527], [-80.3063794353987, 25.7182458140661], [-80.3077921969814, 25.7181641626393], [-80.3186358074884, 25.7177414912965], [-80.3200912192842, 25.7176742488544], [-80.3218984868037, 25.7175781876943], [-80.3266858829389, 25.7173044106966], [-80.3297086590728, 25.717112286083], [-80.3349172177526, 25.7167664616441], [-80.3389849043434, 25.7165551248914], [-80.3412933042307, 25.7164446525403], [-80.3428979872806, 25.7163726059328], [-80.3509267376246, 25.7161516607889], [-80.3671611659994, 25.7154392917239], [-80.3813804108838, 25.7149139430992], [-80.3824966260148, 25.7148689132942], [-80.382696545183, 25.7148764183978], [-80.382929782865, 25.7149214482], [-80.3840210077632, 25.7152966969682], [-80.3843208869646, 25.7153717477129], [-80.3845541264432, 25.7154017671881], [-80.3862784273597, 25.7153642418312], [-80.3993064882111, 25.7149514685982], [-80.4151417447995, 25.7144711477921], [-80.4471636789154, 25.7134312284412]]}, "properties": {"CorrName": "SW 56th St.", "Classi": "Major Road", "KSIRank": 40, "FatalCrash": 10, "SerInjCra": 22, "EffecperMi": 4.19564642186, "Municipal": "Unincorporated Miami-Dade County / South Miami"}}]}