{
  "type": "FeatureCollection",
  "features": [
    {
      "type": "Feature",
      "properties": {
        "note": "PLACEHOLDER rough outline, NOT traced from Waymo's map. Replace by tracing it in geojson.io."
      },
      "geometry": {
        "type": "Polygon",
        "coordinates": [[
          [-80.2600, 25.8200], [-80.1930, 25.8200], [-80.1850, 25.7800],
          [-80.1870, 25.7550], [-80.2100, 25.7300], [-80.2450, 25.7050],
          [-80.2800, 25.6900], [-80.3150, 25.7050], [-80.3150, 25.7500],
          [-80.2900, 25.7800], [-80.2800, 25.8100], [-80.2600, 25.8200]
        ]]
      }
    }
  ]
}
